LAPAN-A3                
1 41603U 16040E   26188.88068734  .00002629  00000+0  84129-4 0  9990
2 41603  97.1498 184.3486 0008506 308.0681  51.9794 15.33246354557988
GAOFEN-3                
1 41727U 16049A   26188.89736635 -.00000158  00000+0 -34870-4 0  9994
2 41727  98.4018 196.3704 0001744  90.8274 269.3116 14.42217620521633
SKYSAT-C4               
1 41771U 16058B   26188.48875848  .00012130  00000+0  22367-3 0  9996
2 41771  96.9169 209.4180 0003162 130.0488 230.1042 15.49254680548612
SKYSAT-C5               
1 41772U 16058C   26187.92650128  .00006073  00000+0  18242-3 0  9993
2 41772  97.0459 227.6879 0002457 176.3166 183.8097 15.34766054546772
SKYSAT-C2               
1 41773U 16058D   26187.59401765  .00010488  00000+0  24350-3 0  9990
2 41773  97.0163 208.9626 0002559  24.3070 335.8299 15.42537650548048
SKYSAT-C3               
1 41774U 16058E   26188.44059502  .00017481  00000+0  27706-3 0  9992
2 41774  96.9001 218.5177 0002001 135.7039 224.4376 15.53450138549250
ALSAT-1B                
1 41785U 16059C   26188.83298468 -.00000068  00000+0 -32443-5 0  9995
2 41785  97.7756 196.7057 0009783 151.2607 208.9142 14.72289617523612
PATHFINDER 1            
1 41787U 16059E   26188.72579370  .00000500  00000+0  95536-4 0  9999
2 41787  97.8171 187.0755 0029434 138.5735 221.7710 14.67687285522721
SCATSAT 1               
1 41790U 16059H   26188.77262721  .00001110  00000+0  15203-3 0  9997
2 41790  98.1180 252.7504 0054660 180.3126 179.8060 14.79574733104632
GOKTURK 1A              
1 41875U 16073A   26188.83523876  .00000341  00000+0  76072-4 0  9992
2 41875  98.1220  83.1834 0001406  78.9394 281.1965 14.62790333511846
RESOURCESAT-2A          
1 41877U 16074A   26188.83359745  .00000066  00000+0  50258-4 0  9999
2 41877  98.7516 262.1689 0002784  43.4642 316.6755 14.21607224497230
CARTOSAT-2D             
1 41948U 17008A   26188.83970991  .00002240  00000+0  10948-3 0  9995
2 41948  97.4090 247.7593 0005204 160.4674 199.6761 15.19245957520715
SENTINEL-2B             
1 42063U 17013A   26188.83686301 -.00000077  00000+0 -12694-4 0  9998
2 42063  98.5680 263.3197 0001194  89.1487 270.9833 14.30813268487597
CARTOSAT-2E             
1 42767U 17036C   26188.85733703  .00001149  00000+0  57792-4 0  9992
2 42767  97.4258 248.3184 0002455 221.7657 138.3390 15.19213887501287
FORMOSAT-5              
1 42920U 17049A   26188.74183662  .00000101  00000+0  36545-4 0  9998
2 42920  98.2248 263.5946 0011835  26.2294 333.9498 14.50906398469654
SENTINEL-5P             
1 42969U 17064A   26188.78376888  .00000035  00000+0  37483-4 0  9994
2 42969  98.7928 130.7689 0001095  92.2058 267.9243 14.19522464452484
SKYSAT-C11              
1 42987U 17068A   26187.96261653  .00023637  00000+0  30510-3 0  9996
2 42987  97.4374 337.6719 0000652 158.6283 201.5000 15.58985087486325
SKYSAT-C10              
1 42988U 17068B   26187.91668503  .00008421  00000+0  25039-3 0  9991
2 42988  97.4529 324.9630 0001286 108.8962 251.2421 15.35000808485382
SKYSAT-C9               
1 42989U 17068C   26188.61788365  .00008865  00000+0  20917-3 0  9991
2 42989  97.4447 326.8037 0009184  69.0692 291.1537 15.42083508485902
SKYSAT-C8               
1 42990U 17068D   26187.92284445  .00008297  00000+0  22874-3 0  9999
2 42990  97.4547 324.8452 0001189  97.2210 262.9170 15.37378325485345
SKYSAT-C7               
1 42991U 17068E   26188.17743158  .00007466  00000+0  20626-3 0  9999
2 42991  97.4556 326.0941 0006414  47.3462 312.8322 15.37334035485449
SKYSAT-C6               
1 42992U 17068F   26187.90932487  .00006719  00000+0  20626-3 0  9995
2 42992  97.4672 325.7029 0005363 104.5619 255.6218 15.34062756485346
CARTOSAT-2F             
1 43111U 18004A   26188.88996834  .00001827  00000+0  89995-4 0  9994
2 43111  97.4775 248.3213 0002103 149.3648 210.7710 15.19232363470470
GAOFEN-1 02             
1 43259U 18031A   26188.90094329  .00000205  00000+0  36825-4 0  9991
2 43259  98.0512 251.3691 0001887 326.5157  33.5933 14.76465122445759
GAOFEN-1 03             
1 43260U 18031B   26188.87899608  .00000550  00000+0  86400-4 0  9999
2 43260  98.0507 251.2033 0002965  34.5730 325.5672 14.76455652445745
GAOFEN-1 04             
1 43262U 18031D   26188.85474096  .00000114  00000+0  23760-4 0  9995
2 43262  98.0513 251.3725 0001591  58.1015 302.0349 14.76463316445731
SENTINEL-3B             
1 43437U 18039A   26188.73775075  .00000071  00000+0  47424-4 0  9990
2 43437  98.6239 255.9743 0000978 119.1768 240.9511 14.26740626427050
GAOFEN-5 01             
1 43461U 18043A   26187.92812406  .00000306  00000+0  72983-4 0  9991
2 43461  98.4582 159.9303 0002527  48.2005 311.9410 14.60619540434579
GAOFEN-6                
1 43484U 18048A   26188.87686417  .00000091  00000+0  20576-4 0  9999
2 43484  98.0955 251.5613 0012079 102.0755 258.1809 14.76377587436442
GAOFEN-11 01            
1 43585U 18063A   26188.88670770  .00010017  00000+0  14594-3 0  9995
2 43585  97.1279 255.7136 0002338 234.8831 125.2205 15.55908484443564
