OBJECT_NAME,OBJECT_ID,EPOCH,MEAN_MOTION,ECCENTRICITY,INCLINATION,RA_OF_ASC_NODE,ARG_OF_PERICENTER,MEAN_ANOMALY,EPHEMERIS_TYPE,CLASSIFICATION_TYPE,NORAD_CAT_ID,ELEMENT_SET_NO,REV_AT_EPOCH,BSTAR,MEAN_MOTION_DOT,MEAN_MOTION_DDOT
LAPAN-A3,2016-040E,2026-07-07T21:08:11.386176,15.33246354,.0008506,97.1498,184.3486,308.0681,51.9794,0,U,41603,999,55798,.84129E-4,.2629E-4,0
GAOFEN-3,2016-049A,2026-07-07T21:32:12.452640,14.42217620,.0001744,98.4018,196.3704,90.8274,269.3116,0,U,41727,999,52163,-.3487E-4,-.158E-5,0
SKYSAT-C4,2016-058B,2026-07-07T11:43:48.732672,15.49254680,.00031627,96.9169,209.4180,130.0488,230.1042,0,U,41771,999,54861,.22367371E-3,.1213E-3,0
SKYSAT-C5,2016-058C,2026-07-06T22:14:09.710592,15.34766054,.0002457,97.0459,227.6879,176.3166,183.8097,0,U,41772,999,54677,.18242404E-3,.6073E-4,0
SKYSAT-C2,2016-058D,2026-07-06T14:15:23.124960,15.42537650,.00025596,97.0163,208.9626,24.3070,335.8299,0,U,41773,999,54804,.24349585E-3,.10488E-3,0
SKYSAT-C3,2016-058E,2026-07-07T10:34:27.409728,15.53450138,.00020012,96.9001,218.5177,135.7039,224.4376,0,U,41774,999,54925,.27706479E-3,.17481E-3,0
ALSAT-1B,2016-059C,2026-07-07T19:59:29.876352,14.72289617,.0009783,97.7756,196.7057,151.2607,208.9142,0,U,41785,999,52361,-.32443E-5,-.68E-6,0
PATHFINDER 1,2016-059E,2026-07-07T17:25:08.575680,14.67687285,.0029434,97.8171,187.0755,138.5735,221.7710,0,U,41787,999,52272,.95536E-4,.5E-5,0
SCATSAT 1,2016-059H,2026-07-07T18:32:34.990944,14.79574733,.005466,98.1180,252.7504,180.3126,179.8060,0,U,41790,999,10463,.15203E-3,.111E-4,0
GOKTURK 1A,2016-073A,2026-07-07T20:02:44.628864,14.62790333,.0001406,98.1220,83.1834,78.9394,281.1965,0,U,41875,999,51184,.76072E-4,.341E-5,0
RESOURCESAT-2A,2016-074A,2026-07-07T20:00:22.819680,14.21607224,.0002784,98.7516,262.1689,43.4642,316.6755,0,U,41877,999,49723,.50258E-4,.66E-6,0
CARTOSAT-2D,2017-008A,2026-07-07T20:09:10.936224,15.19245957,.0005204,97.4090,247.7593,160.4674,199.6761,0,U,41948,999,52071,.10948E-3,.224E-4,0
SENTINEL-2B,2017-013A,2026-07-07T20:05:04.964064,14.30813268,.0001194,98.5680,263.3197,89.1487,270.9833,0,U,42063,999,48759,-.12694E-4,-.77E-6,0
CARTOSAT-2E,2017-036C,2026-07-07T20:34:33.919392,15.19213887,.0002455,97.4258,248.3184,221.7657,138.3390,0,U,42767,999,50128,.57792E-4,.1149E-4,0
FORMOSAT-5,2017-049A,2026-07-07T17:48:14.683968,14.50906398,.0011835,98.2248,263.5946,26.2294,333.9498,0,U,42920,999,46965,.36545E-4,.101E-5,0
SENTINEL-5P,2017-064A,2026-07-07T18:48:37.631232,14.19522464,.0001095,98.7928,130.7689,92.2058,267.9243,0,U,42969,999,45248,.37483E-4,.35E-6,0
SKYSAT-C11,2017-068A,2026-07-06T23:06:10.068192,15.58985087,.00006522,97.4374,337.6719,158.6283,201.5000,0,U,42987,999,48632,.30509951E-3,.23637E-3,0
SKYSAT-C10,2017-068B,2026-07-06T22:00:01.586592,15.35000808,.00012861,97.4529,324.9630,108.8962,251.2421,0,U,42988,999,48538,.25039043E-3,.8421E-4,0
SKYSAT-C9,2017-068C,2026-07-07T14:49:45.147360,15.42083508,.0009184,97.4447,326.8037,69.0692,291.1537,0,U,42989,999,48590,.20917E-3,.8865E-4,0
SKYSAT-C8,2017-068D,2026-07-06T22:08:53.760480,15.37378325,.00011896,97.4547,324.8452,97.2210,262.9170,0,U,42990,999,48534,.22873875E-3,.8297E-4,0
SKYSAT-C7,2017-068E,2026-07-07T04:15:30.088512,15.37334035,.00064145,97.4556,326.0941,47.3462,312.8322,0,U,42991,999,48544,.20626111E-3,.7466E-4,0
SKYSAT-C6,2017-068F,2026-07-06T21:49:25.668768,15.34062756,.00053637,97.4672,325.7029,104.5619,255.6218,0,U,42992,999,48534,.20625961E-3,.6719E-4,0
CARTOSAT-2F,2018-004A,2026-07-07T21:21:33.264576,15.19232363,.0002103,97.4775,248.3213,149.3648,210.7710,0,U,43111,999,47047,.89995E-4,.1827E-4,0
GAOFEN-1 02,2018-031A,2026-07-07T21:37:21.500256,14.76465122,.0001887,98.0512,251.3691,326.5157,33.5933,0,U,43259,999,44575,.36825E-4,.205E-5,0
GAOFEN-1 03,2018-031B,2026-07-07T21:05:45.261312,14.76455652,.0002965,98.0507,251.2033,34.5730,325.5672,0,U,43260,999,44574,.864E-4,.55E-5,0
GAOFEN-1 04,2018-031D,2026-07-07T20:30:49.618944,14.76463316,.0001591,98.0513,251.3725,58.1015,302.0349,0,U,43262,999,44573,.2376E-4,.114E-5,0
SENTINEL-3B,2018-039A,2026-07-07T17:42:21.664800,14.26740626,.0000978,98.6239,255.9743,119.1768,240.9511,0,U,43437,999,42705,.47424E-4,.71E-6,0
GAOFEN-5 01,2018-043A,2026-07-06T22:16:29.918784,14.60619540,.00025272,98.4582,159.9303,48.2005,311.9410,0,U,43461,999,43457,.7298252E-4,.306E-5,0
GAOFEN-6,2018-048A,2026-07-07T21:02:41.064288,14.76377587,.0012079,98.0955,251.5613,102.0755,258.1809,0,U,43484,999,43644,.20576E-4,.91E-6,0
GAOFEN-11 01,2018-063A,2026-07-07T21:16:51.545280,15.55908484,.0002338,97.1279,255.7136,234.8831,125.2205,0,U,43585,999,44356,.14594E-3,.10017E-3,0
